GSAT-10                 
1 38779U 12051B   23328.13729998 -.00000158  00000+0  00000+0 0  9992
2 38779   0.0150 293.6082 0004946 325.6877 295.9747  1.00269957 40739
INTELSAT 23 (IS-23)     
1 38867U 12057A   23328.86626402 -.00000276  00000+0  00000+0 0  9993
2 38867   0.0140 258.3159 0001532  18.9227  45.1973  1.00268295 40569
BEIDOU-2 G6             
1 38953U 12059A   23328.89980067 -.00000167  00000+0  00000+0 0  9993
2 38953   2.0356  81.6560 0007669 288.7453 101.1415  1.00269673 40536
LUCH-5B                 
1 38977U 12061A   23329.08843303 -.00000131  00000+0  00000+0 0  9996
2 38977   8.4379  58.4558 0005087 155.4592 225.3673  1.00271117 40803
YAMAL 300K              
1 38978U 12061B   23328.69830292  .00000079  00000+0  00000+0 0  9996
2 38978   0.0123 317.9239 0000068 193.8293 346.0063  1.00271840 40252
STAR ONE C3             
1 38991U 12062A   23329.07619024 -.00000241  00000+0  00000+0 0  9995
2 38991   0.0575  97.1524 0002383 152.0629 127.0057  1.00270022 40480
EUTELSAT 21B            
1 38992U 12062B   23328.86333981  .00000138  00000+0  00000+0 0  9991
2 38992   0.0717  15.6378 0002840 235.4720 144.8607  1.00272487 40448
ECHOSTAR 16             
1 39008U 12065A   23329.07063289 -.00000273  00000+0  00000+0 0  9999
2 39008   0.0170 333.2014 0002300 286.2824 128.1919  1.00264207 40437
CHINASAT 12 (ZX 12)     
1 39017U 12067A   23328.89980067 -.00000199  00000+0  00000+0 0  9999
2 39017   0.0430 102.1142 0003496 145.0255 227.9060  1.00270749 40138
EUTELSAT 70B            
1 39020U 12069A   23328.85396391 -.00000036  00000+0  00000+0 0  9992
2 39020   0.0670  14.4875 0004717 225.7877 201.2249  1.00272148 40138
YAMAL 402               
1 39022U 12070A   23328.88712358  .00000094  00000+0  00000+0 0  9997
2 39022   0.0186 302.1813 0004740 303.5764 192.1048  1.00269980 40019
SKYNET 5D               
1 39034U 12075A   23328.88729719  .00000107  00000+0  00000+0 0  9999
2 39034   0.0704   4.5481 0004495 238.7816 192.4237  1.00271961 39783
MEXSAT 3                
1 39035U 12075B   23328.85390681 -.00000017  00000+0  00000+0 0  9990
2 39035   0.0173 344.4692 0002192 270.4340   1.2566  1.00271025 39807
TDRS 11                 
1 39070U 13004A   23328.84212852  .00000085  00000+0  00000+0 0  9998
2 39070   2.6945   4.0571 0002685  57.1094 131.1559  1.00274330 37310
AMAZONAS 3              
1 39078U 13006A   23329.07955671 -.00000274  00000+0  00000+0 0  9998
2 39078   0.0453 131.3408 0004995 101.0038 159.0914  1.00270470 39597
AZERSPACE 1             
1 39079U 13006B   23328.85952119  .00000141  00000+0  00000+0 0  9990
2 39079   0.0591  99.9130 0001387 146.1768 172.8892  1.00271145 39424
SBIRS GEO-2 (USA 241)   
1 39120U 13011A   23328.86922279 -.00000250  00000+0  00000+0 0  9990
2 39120   2.6161  42.7855 0002325 200.6625  95.0499  1.00271119 39153
EUTELSAT 117 WEST A     
1 39122U 13012A   23328.85347168 -.00000005  00000+0  00000+0 0  9998
2 39122   0.0129 331.0193 0003064 270.9991  11.9927  1.00271928 39057
ANIK G1                 
1 39127U 13014A   23329.07033230 -.00000066  00000+0  00000+0 0  9999
2 39127   0.0614  98.3036 0002944 152.8466  90.6511  1.00271673 38870
CHINASAT 11 (ZX 11)     
1 39157U 13020A   23329.11088491 -.00000281  00000+0  00000+0 0  9992
2 39157   0.0147 324.4206 0003208 320.1014 277.0538  1.00266351 38775
EUTELSAT 7B             
1 39163U 13022A   23328.87818612  .00000056  00000+0  00000+0 0  9998
2 39163   0.0696   7.5974 0003897 305.7029  73.4216  1.00270277 38583
WGS F5 (USA 243)        
1 39168U 13024A   23328.79470112 -.00000276  00000+0  00000+0 0  9990
2 39168   0.0126 312.2431 0000539 314.9772  29.8542  1.00269294 37782
SES-6                   
1 39172U 13026A   23328.86878767 -.00000253  00000+0  00000+0 0  9998
2 39172   0.0238 321.3575 0002582 279.8842  94.5962  1.00271879 38348
IRNSS-1A                
1 39199U 13034A   23328.88729719  .00000076  00000+0  00000+0 0  9992
2 39199  33.6121  77.4854 0022329 182.7067 177.9097  1.00278886 37991
MUOS-2                  
1 39206U 13036A   23328.84151936  .00000073  00000+0  00000+0 0  9996
2 39206   3.3000  37.1259 0058627 180.8769 331.5062  1.00275073 37816
ALPHASAT                
1 39215U 13038A   23328.66688771  .00000141  00000+0  00000+0 0  9996
2 39215   2.8594   9.3106 0002126 229.5560  89.4718  1.00276924 34633
INSAT-3D                
1 39216U 13038B   23328.89980067 -.00000148  00000+0  00000+0 0  9993
2 39216   0.0541 103.3578 0002560 147.9510 218.2948  1.00271509 37706
WGS F6 (USA 244)        
1 39222U 13041A   23328.70665712  .00000097  00000+0  00000+0 0  9993
2 39222   0.0095 312.6122 0000872 295.1806 294.8030  1.00272018 36678
ES'HAIL 1               
1 39233U 13044A   23329.09678722  .00000151  00000+0  00000+0 0  9997
2 39233   0.0512   2.8983 0002196 238.0987 243.1298  1.00269902 37520
GSAT-7                  
1 39234U 13044B   23328.43868843 -.00000070  00000+0  00000+0 0  9991
2 39234   0.0773  94.3860 0009786 166.4032  34.3009  1.00271359 35940
AMOS-4                  
1 39237U 13045A   23329.10461927  .00000015  00000+0  00000+0 0  9990
2 39237   0.0431 110.2311 0002394 156.3635 259.8871  1.00275069 37516
AEHF-3 (USA 246)        
1 39256U 13050A   23328.70256704  .00000142  00000+0  00000+0 0  9998
2 39256   2.9653  73.6951 0053583 175.5203 272.0381  1.00272586 36294
ASTRA 2E                
1 39285U 13056A   23328.88245024  .00000158  00000+0  00000+0 0  9995
2 39285   0.0589 346.3957 0002352 261.2863 162.0586  1.00272365 37057
FM-6                    
1 39360U 13058A   23328.44493626 -.00000009  00000+0  00000+0 0  9992
2 39360   0.0171 312.8331 0000266 188.5455 325.8047  1.00271976 36688
RADUGA-1M 3             
1 39375U 13062A   23328.46646738  .00000163  00000+0  00000+0 0  9999
2 39375   3.5702  83.6918 0001308 340.2483 202.1761  1.00271759 36748
SES-8                   
1 39460U 13071A   23328.89567771 -.00000262  00000+0  00000+0 0  9991
2 39460   0.0149 274.6092 0000961 308.3626 258.0767  1.00271254 35052
INMARSAT 5-F1           
1 39476U 13073A   23329.10418416  .00000037  00000+0  00000+0 0  9995
2 39476   0.0205 321.5449 0000226  83.5868 118.7565  1.00269652 36557
TKSAT-1 (TUPAC KATARI)  
1 39481U 13075A   23329.07433535 -.00000186  00000+0  00000+0 0  9994
2 39481   0.0080 161.7111 0002897  92.5213 109.0983  1.00270338 36475
EXPRESS-AM5             
1 39487U 13077A   23328.83307815 -.00000272  00000+0  00000+0 0  9992
2 39487   0.0149 270.9391 0001337  40.0471 192.5113  1.00272231 36984
GSAT-14                 
1 39498U 14001A   23328.85396391 -.00000070  00000+0  00000+0 0  9997
2 39498   0.0401 269.3000 0006615 350.6356 185.0644  1.00272006 36001
THAICOM 6               
1 39500U 14002A   23328.89980067 -.00000114  00000+0  00000+0 0  9994
2 39500   0.0778 107.0356 0002399  91.6236 267.3825  1.00272130 36089
TDRS 12                 
1 39504U 14004A   23328.86870065 -.00000268  00000+0  00000+0 0  9993
2 39504   3.5692 358.4010 0004485 226.9389 110.0650  1.00269441 34893
ABS-2                   
1 39508U 14006A   23328.85396391 -.00000078  00000+0  00000+0 0  9992
2 39508   0.0536  96.5160 0003912 142.7718 206.6109  1.00270960 35909
ATHENA-FIDUS            
1 39509U 14006B   23328.16799521  .00000161  00000+0  00000+0 0  9991
2 39509   0.0146 114.2678 0001598 133.7590 273.1300  1.00272144 35699
TURKSAT 4A              
1 39522U 14007A   23328.82341001  .00000154  00000+0  00000+0 0  9998
2 39522   0.0453 267.5803 0005107 341.9210 152.4788  1.00267853 35600
EXPRESS-AT1             
1 39612U 14010A   23328.88793267  .00000086  00000+0  00000+0 0  9997
2 39612   0.0167 301.2752 0000599 244.9124 253.0653  1.00273315 35437
EXPRESS-AT2             
1 39613U 14010B   23328.71646662 -.00000273  00000+0  00000+0 0  9995
2 39613   0.0142 286.8895 0001733 347.8535 186.4735  1.00272042 35130
AMAZONAS 4A             
1 39616U 14011A   23328.86208693 -.00000244  00000+0  00000+0 0  9991
2 39616   0.0279 218.5944 0004739  24.7002  56.6250  1.00272341 35323
ASTRA 5B                
1 39617U 14011B   23328.85119111  .00000145  00000+0  00000+0 0  9996
2 39617   0.0449 327.4088 0004503 289.8985 136.1777  1.00271647 35286
IRNSS-1B                
1 39635U 14017A   23317.92725828  .00000109  00000+0  00000+0 0  9996
2 39635  28.5653 256.4782 0018083 187.2848 358.0237  1.00278334 35306
LUCH-5V                 
1 39727U 14023A   23328.89567771 -.00000261  00000+0  00000+0 0  9994
2 39727   2.7831  76.9994 0004333 186.4128 217.3858  1.00271091 34987
KAZSAT-3                
1 39728U 14023B   23328.88174264  .00000068  00000+0  00000+0 0  9999
2 39728   0.0179 258.3737 0000334   6.1506 174.9722  1.00274578 33069
EUTELSAT 3B             
1 39773U 14030A   23328.87722888  .00000028  00000+0  00000+0 0  9993
2 39773   0.0881  45.8452 0005892 183.2797 153.3595  1.00271931 34683
ASIASAT 8 (AMOS-7)      
1 40107U 14046A   23328.80436065 -.00000025  00000+0  00000+0 0  9993
2 40107   0.0527 101.2915 0002199 143.9467 103.9597  1.00270972 92768
ASIASAT 6               
1 40141U 14052A   23328.89007826 -.00000354  00000+0  00000+0 0  9991
2 40141   0.0179 320.7673 0000950 287.1036 256.0340  1.00270243 33698
OPTUS 10                
1 40146U 14054A   23328.58174314 -.00000139  00000+0  00000+0 0  9992
2 40146   0.0415 142.3814 0003793  85.8595 200.4931  1.00271086 33642
MEASAT-3B               
1 40147U 14054B   23328.82341862 -.00000234  00000+0  00000+0 0  9990
2 40147   0.0462  41.6653 0000527 325.3147  84.4778  1.00273592 33546
LUCH (OLYMP-K 1)        
1 40258U 14058A   23328.87322583 -.00000133  00000+0  00000+0 0  9999
2 40258   0.0037  30.1665 0000753 214.1228 115.5977  1.00270246 31615
HIMAWARI-8              
1 40267U 14060A   23328.92480299 -.00000268  00000+0  00000+0 0  9996
2 40267   0.0214  80.5502 0000961 201.3591 255.2920  1.00268847 33383
